DISKSAT C               
1 67219U 25305A   26017.10562137  .00010077  00000+0  68766-3 0  9991
2 67219  45.0018 163.6337 0001667  44.3804 315.7204 15.06441719  4517
DISKSAT B               
1 67220U 25305B   26017.10668473  .00008585  00000+0  58950-3 0  9998
2 67220  45.0018 163.6401 0001357  50.2401 309.8593 15.06366442  4510
DISKSAT D               
1 67221U 25305C   26017.10754003  .00007798  00000+0  53752-3 0  9994
2 67221  45.0019 163.6468 0001786  61.2913 298.8141 15.06330623  4519
DISKSAT A               
1 67222U 25305D   26017.10877084  .00010812  00000+0  73917-3 0  9996
2 67222  45.0019 163.6559 0001741  71.1487 288.9577 15.06307778  4505
ELECTRON KICK STAGE R/B 
1 67223U 25305E   26016.11300553  .00088759  10595-4  75811-3 0  9994
2 67223  44.9844 157.9770 0161442 307.5123  51.1189 15.54146510  4494
TJS-23                  
1 67226U 25306A   26016.02100656  .00000043  00000+0  00000+0 0  9999
2 67226   5.9337 298.2715 0000691  67.2072 293.0278  1.00270468   364
CZ-5 R/B                
1 67227U 25306B   26016.73403638  .00008562  00000+0  23018-2 0  9995
2 67227  16.2590 290.0061 7577745 195.7219 111.0043  1.92563067   541
QPS-SAR-15              
1 67228U 25307A   26017.24894195  .00004481  00000+0  39424-3 0  9991
2 67228  42.0086 335.8717 0007701  86.3796 273.7910 14.97387337  4044
ELECTRON R/B            
1 67229U 25307B   26017.52790358  .01288676  78742-5  16986-2 0  9991
2 67229  41.9911 316.7742 0122254  79.1837 282.2756 15.92773533  4285
SPACEMOBILE-006         
1 67232U 25309A   26016.49529151 -.00000509  00000+0 -91964-5 0  9999
2 67232  52.9984 305.9975 0012121  33.3140 326.8614 15.17742607  3551
LVM3 R/B                
1 67233U 25309B   26017.25669898  .00007758  00000+0  37281-3 0  9999
2 67233  52.9293 301.9507 0011938  60.2167 300.0012 15.19707415  3674
2025-310A               
1 67234U 25310A   26014.72283539  .00000009  00000+0  86937-5 0  9991
2 67234  97.9664  24.2349 0001912 179.1290 180.9923 14.75705364  2995
