CCSDS_OMM_VERS = 2.0
CREATION_DATE  = 
ORIGINATOR     = 

OBJECT_NAME    = DISKSAT C
OBJECT_ID      = 2025-305A
CENTER_NAME    = EARTH
REF_FRAME      = TEME
TIME_SYSTEM    = UTC
MEAN_ELEMENT_THEORY = SGP/SGP4

EPOCH          = 2026-01-17T02:32:05.686368
MEAN_MOTION    = 15.06441719
ECCENTRICITY   = .00016674
INCLINATION    = 45.0018
RA_OF_ASC_NODE = 163.6337
ARG_OF_PERICENTER = 44.3804
MEAN_ANOMALY   = 315.7204

EPHEMERIS_TYPE = 0
CLASSIFICATION_TYPE = U
NORAD_CAT_ID   = 67219
ELEMENT_SET_NO = 999
REV_AT_EPOCH   = 451
BSTAR          = .68766017E-3
MEAN_MOTION_DOT = .10077E-3
MEAN_MOTION_DDOT = 0

CCSDS_OMM_VERS = 2.0
CREATION_DATE  = 
ORIGINATOR     = 

OBJECT_NAME    = DISKSAT B
OBJECT_ID      = 2025-305B
CENTER_NAME    = EARTH
REF_FRAME      = TEME
TIME_SYSTEM    = UTC
MEAN_ELEMENT_THEORY = SGP/SGP4

EPOCH          = 2026-01-17T02:33:37.560672
MEAN_MOTION    = 15.06366442
ECCENTRICITY   = .0001357
INCLINATION    = 45.0018
RA_OF_ASC_NODE = 163.6401
ARG_OF_PERICENTER = 50.2401
MEAN_ANOMALY   = 309.8593

EPHEMERIS_TYPE = 0
CLASSIFICATION_TYPE = U
NORAD_CAT_ID   = 67220
ELEMENT_SET_NO = 999
REV_AT_EPOCH   = 451
BSTAR          = .58950428E-3
MEAN_MOTION_DOT = .8585E-4
MEAN_MOTION_DDOT = 0

CCSDS_OMM_VERS = 2.0
CREATION_DATE  = 
ORIGINATOR     = 

OBJECT_NAME    = DISKSAT D
OBJECT_ID      = 2025-305C
CENTER_NAME    = EARTH
REF_FRAME      = TEME
TIME_SYSTEM    = UTC
MEAN_ELEMENT_THEORY = SGP/SGP4

EPOCH          = 2026-01-17T02:34:51.458592
MEAN_MOTION    = 15.06330623
ECCENTRICITY   = .00017864
INCLINATION    = 45.0019
RA_OF_ASC_NODE = 163.6468
ARG_OF_PERICENTER = 61.2913
MEAN_ANOMALY   = 298.8141

EPHEMERIS_TYPE = 0
CLASSIFICATION_TYPE = U
NORAD_CAT_ID   = 67221
ELEMENT_SET_NO = 999
REV_AT_EPOCH   = 451
BSTAR          = .53751619E-3
MEAN_MOTION_DOT = .7798E-4
MEAN_MOTION_DDOT = 0

CCSDS_OMM_VERS = 2.0
CREATION_DATE  = 
ORIGINATOR     = 

OBJECT_NAME    = DISKSAT A
OBJECT_ID      = 2025-305D
CENTER_NAME    = EARTH
REF_FRAME      = TEME
TIME_SYSTEM    = UTC
MEAN_ELEMENT_THEORY = SGP/SGP4

EPOCH          = 2026-01-17T02:36:37.800576
MEAN_MOTION    = 15.06307778
ECCENTRICITY   = .00017411
INCLINATION    = 45.0019
RA_OF_ASC_NODE = 163.6559
ARG_OF_PERICENTER = 71.1487
MEAN_ANOMALY   = 288.9577

EPHEMERIS_TYPE = 0
CLASSIFICATION_TYPE = U
NORAD_CAT_ID   = 67222
ELEMENT_SET_NO = 999
REV_AT_EPOCH   = 450
BSTAR          = .73917196E-3
MEAN_MOTION_DOT = .10812E-3
MEAN_MOTION_DDOT = 0

CCSDS_OMM_VERS = 2.0
CREATION_DATE  = 
ORIGINATOR     = 

OBJECT_NAME    = ELECTRON KICK STAGE R/B
OBJECT_ID      = 2025-305E
CENTER_NAME    = EARTH
REF_FRAME      = TEME
TIME_SYSTEM    = UTC
MEAN_ELEMENT_THEORY = SGP/SGP4

EPOCH          = 2026-01-16T02:42:43.677792
MEAN_MOTION    = 15.54146510
ECCENTRICITY   = .0161442
INCLINATION    = 44.9844
RA_OF_ASC_NODE = 157.9770
ARG_OF_PERICENTER = 307.5123
MEAN_ANOMALY   = 51.1189

EPHEMERIS_TYPE = 0
CLASSIFICATION_TYPE = U
NORAD_CAT_ID   = 67223
ELEMENT_SET_NO = 999
REV_AT_EPOCH   = 449
BSTAR          = .75810586E-3
MEAN_MOTION_DOT = .88759E-3
MEAN_MOTION_DDOT = .1059532E-4

CCSDS_OMM_VERS = 2.0
CREATION_DATE  = 
ORIGINATOR     = 

OBJECT_NAME    = TJS-23
OBJECT_ID      = 2025-306A
CENTER_NAME    = EARTH
REF_FRAME      = TEME
TIME_SYSTEM    = UTC
MEAN_ELEMENT_THEORY = SGP/SGP4

EPOCH          = 2026-01-16T00:30:14.966784
MEAN_MOTION    = 1.00270468
ECCENTRICITY   = .00006911
INCLINATION    = 5.9337
RA_OF_ASC_NODE = 298.2715
ARG_OF_PERICENTER = 67.2072
MEAN_ANOMALY   = 293.0278

EPHEMERIS_TYPE = 0
CLASSIFICATION_TYPE = U
NORAD_CAT_ID   = 67226
ELEMENT_SET_NO = 999
REV_AT_EPOCH   = 36
BSTAR          = 0
MEAN_MOTION_DOT = .43E-6
MEAN_MOTION_DDOT = 0

CCSDS_OMM_VERS = 2.0
CREATION_DATE  = 
ORIGINATOR     = 

OBJECT_NAME    = CZ-5 R/B
OBJECT_ID      = 2025-306B
CENTER_NAME    = EARTH
REF_FRAME      = TEME
TIME_SYSTEM    = UTC
MEAN_ELEMENT_THEORY = SGP/SGP4

EPOCH          = 2026-01-16T17:37:00.743232
MEAN_MOTION    = 1.92563067
ECCENTRICITY   = .75777454
INCLINATION    = 16.2590
RA_OF_ASC_NODE = 290.0061
ARG_OF_PERICENTER = 195.7219
MEAN_ANOMALY   = 111.0043

EPHEMERIS_TYPE = 0
CLASSIFICATION_TYPE = U
NORAD_CAT_ID   = 67227
ELEMENT_SET_NO = 999
REV_AT_EPOCH   = 54
BSTAR          = .23017527E-2
MEAN_MOTION_DOT = .8562E-4
MEAN_MOTION_DDOT = 0

CCSDS_OMM_VERS = 2.0
CREATION_DATE  = 
ORIGINATOR     = 

OBJECT_NAME    = QPS-SAR-15
OBJECT_ID      = 2025-307A
CENTER_NAME    = EARTH
REF_FRAME      = TEME
TIME_SYSTEM    = UTC
MEAN_ELEMENT_THEORY = SGP/SGP4

EPOCH          = 2026-01-17T05:58:28.584480
MEAN_MOTION    = 14.97387337
ECCENTRICITY   = .00077018
INCLINATION    = 42.0086
RA_OF_ASC_NODE = 335.8717
ARG_OF_PERICENTER = 86.3796
MEAN_ANOMALY   = 273.7910

EPHEMERIS_TYPE = 0
CLASSIFICATION_TYPE = U
NORAD_CAT_ID   = 67228
ELEMENT_SET_NO = 999
REV_AT_EPOCH   = 404
BSTAR          = .39423817E-3
MEAN_MOTION_DOT = .4481E-4
MEAN_MOTION_DDOT = 0

CCSDS_OMM_VERS = 2.0
CREATION_DATE  = 
ORIGINATOR     = 

OBJECT_NAME    = ELECTRON R/B
OBJECT_ID      = 2025-307B
CENTER_NAME    = EARTH
REF_FRAME      = TEME
TIME_SYSTEM    = UTC
MEAN_ELEMENT_THEORY = SGP/SGP4

EPOCH          = 2026-01-17T12:40:10.869312
MEAN_MOTION    = 15.92773533
ECCENTRICITY   = .0122254
INCLINATION    = 41.9911
RA_OF_ASC_NODE = 316.7742
ARG_OF_PERICENTER = 79.1837
MEAN_ANOMALY   = 282.2756

EPHEMERIS_TYPE = 0
CLASSIFICATION_TYPE = U
NORAD_CAT_ID   = 67229
ELEMENT_SET_NO = 999
REV_AT_EPOCH   = 428
BSTAR          = .16986E-2
MEAN_MOTION_DOT = .1288676E-1
MEAN_MOTION_DDOT = .78742E-5

CCSDS_OMM_VERS = 2.0
CREATION_DATE  = 
ORIGINATOR     = 

OBJECT_NAME    = SPACEMOBILE-006
OBJECT_ID      = 2025-309A
CENTER_NAME    = EARTH
REF_FRAME      = TEME
TIME_SYSTEM    = UTC
MEAN_ELEMENT_THEORY = SGP/SGP4

EPOCH          = 2026-01-16T11:53:13.186464
MEAN_MOTION    = 15.17742607
ECCENTRICITY   = .00121213
INCLINATION    = 52.9984
RA_OF_ASC_NODE = 305.9975
ARG_OF_PERICENTER = 33.3140
MEAN_ANOMALY   = 326.8614

EPHEMERIS_TYPE = 0
CLASSIFICATION_TYPE = U
NORAD_CAT_ID   = 67232
ELEMENT_SET_NO = 999
REV_AT_EPOCH   = 355
BSTAR          = -.919635E-5
MEAN_MOTION_DOT = -.509E-5
MEAN_MOTION_DDOT = 0

CCSDS_OMM_VERS = 2.0
CREATION_DATE  = 
ORIGINATOR     = 

OBJECT_NAME    = LVM3 R/B
OBJECT_ID      = 2025-309B
CENTER_NAME    = EARTH
REF_FRAME      = TEME
TIME_SYSTEM    = UTC
MEAN_ELEMENT_THEORY = SGP/SGP4

EPOCH          = 2026-01-17T06:09:38.791872
MEAN_MOTION    = 15.19707415
ECCENTRICITY   = .00119382
INCLINATION    = 52.9293
RA_OF_ASC_NODE = 301.9507
ARG_OF_PERICENTER = 60.2167
MEAN_ANOMALY   = 300.0012

EPHEMERIS_TYPE = 0
CLASSIFICATION_TYPE = U
NORAD_CAT_ID   = 67233
ELEMENT_SET_NO = 999
REV_AT_EPOCH   = 367
BSTAR          = .37281095E-3
MEAN_MOTION_DOT = .7758E-4
MEAN_MOTION_DDOT = 0

CCSDS_OMM_VERS = 2.0
CREATION_DATE  = 
ORIGINATOR     = 

OBJECT_NAME    = 2025-310A
OBJECT_ID      = 2025-310A
CENTER_NAME    = EARTH
REF_FRAME      = TEME
TIME_SYSTEM    = UTC
MEAN_ELEMENT_THEORY = SGP/SGP4

EPOCH          = 2026-01-14T17:20:52.977696
MEAN_MOTION    = 14.75705364
ECCENTRICITY   = .0001912
INCLINATION    = 97.9664
RA_OF_ASC_NODE = 24.2349
ARG_OF_PERICENTER = 179.1290
MEAN_ANOMALY   = 180.9923

EPHEMERIS_TYPE = 0
CLASSIFICATION_TYPE = U
NORAD_CAT_ID   = 67234
ELEMENT_SET_NO = 999
REV_AT_EPOCH   = 299
BSTAR          = .869375E-5
MEAN_MOTION_DOT = .9E-7
MEAN_MOTION_DDOT = 0

